[
  {
    "name": "Afghanistan",
    "flag": "ðŸ‡¦ðŸ‡«",
    "code": "AF",
    "dial_code": "+93",
    "mask": "(00)-000-0000"
  },
  {
    "name": "Armenia",
    "flag": "ðŸ‡¦ðŸ‡²",
    "code": "AM",
    "dial_code": "+374",
    "mask": "(00)-000-000"
  },
  {
    "name": "Azerbaijan",
    "flag": "ðŸ‡¦ðŸ‡¿",
    "code": "AZ",
    "dial_code": "+994",
    "mask": "(00)-000-00-00"
  },
  {
    "name": "Belarus",
    "flag": "ðŸ‡§ðŸ‡¾",
    "code": "BY",
    "dial_code": "+375",
    "mask": "(00) 000-00-00"
  },
  {
    "name": "Germany",
    "flag": "ðŸ‡©ðŸ‡ª",
    "code": "DE",
    "dial_code": "+49",
    "mask": "(0000) 000-0000"
  },
  {
    "name": "Georgia",
    "flag": "ðŸ‡¬ðŸ‡ª",
    "code": "GE",
    "dial_code": "+995",
    "mask": "(000) 000-000"
  },
  {
    "name": "Iran, Islamic Republic of Persian Gulf",
    "flag": "ðŸ‡®ðŸ‡·",
    "code": "IR",
    "dial_code": "+98",
    "mask": "(000) 000-0000"
  },
  {
    "name": "Kazakhstan",
    "flag": "ðŸ‡°ðŸ‡¿",
    "code": "KZ",
    "dial_code": "+7",
    "mask": "(000) 000-00-00"
  },
  {
    "name": "Kyrgyzstan",
    "flag": "ðŸ‡°ðŸ‡¬",
    "code": "KG",
    "dial_code": "+996",
    "mask": "(000) 000-000"
  },
  {
    "name": "Latvia",
    "flag": "ðŸ‡±ðŸ‡»",
    "code": "LV",
    "dial_code": "+371",
    "mask": "(00)-000-000"
  },
  {
    "name": "Lithuania",
    "flag": "ðŸ‡±ðŸ‡¹",
    "code": "LT",
    "dial_code": "+370",
    "mask": "(000) 00-000"
  },
  {
    "name": "Moldova",
    "flag": "ðŸ‡²ðŸ‡©",
    "code": "MD",
    "dial_code": "+373",
    "mask": "(000)-00-000"
  },
  {
    "name": "Poland",
    "flag": "ðŸ‡µðŸ‡±",
    "code": "PL",
    "dial_code": "+48",
    "mask": "(000) 000-000"
  },
  {
    "name": "Tajikistan",
    "flag": "ðŸ‡¹ðŸ‡¯",
    "code": "TJ",
    "dial_code": "+992",
    "mask": "(00)-000-0000"
  },
  {
    "name": "Turkmenistan",
    "flag": "ðŸ‡¹ðŸ‡²",
    "code": "TM",
    "dial_code": "+993",
    "mask": "(0)-000-0000"
  },
  {
    "name": "Turkey",
    "flag": "ðŸ‡¹ðŸ‡·",
    "code": "TR",
    "dial_code": "+90",
    "mask": "(000) 000-0000"
  },
  {
    "name": "Uzbekistan",
    "flag": "ðŸ‡ºðŸ‡¿",
    "code": "UZ",
    "dial_code": "+998",
    "mask": "(00) 000-00-00"
  },
  {
    "name": "Ukraine",
    "flag": "ðŸ‡ºðŸ‡¦",
    "code": "UA",
    "dial_code": "+380",
    "mask": "(00) 000-00-00"
  },
  {
    "name": "Sweden",
    "flag": "ðŸ‡¸ðŸ‡ª",
    "code": "SE",
    "dial_code": "+46",
    "mask": "(00)-000-0000"
  },
  {
    "name": "Estonia",
    "flag": "ðŸ‡ªðŸ‡ª",
    "code": "EE",
    "dial_code": "+372",
    "mask": "0000-0000"
  },
  {
    "name": "Serbia",
    "flag": "ðŸ‡·ðŸ‡¸",
    "code": "RS",
    "dial_code": "+381",
    "mask": "(00)-000-0000"
  },
  {
    "name": "Russia",
    "flag": "ðŸ‡·ðŸ‡º",
    "code": "RU",
    "dial_code": "+7",
    "mask": "(000) 000-00-00"
  }
]
